#aV2014  4  3  0  0  0.00000000     288 DD+AD WGS84 FIT  NGA
## 1786 345600.00000000   300.00000000 56750 0.0000000000000
+   31     1  2  3  4  5  7  8  9 10 11 12 13 14 15 16 17 18
+         19 20 21 22 23 24 25 26 27 28 29 30 31 32  0  0  0
+          0  0  0  0  0  0  0  0  0  0  0  0  0  0  0  0  0
+          0  0  0  0  0  0  0  0  0  0  0  0  0  0  0  0  0
+          0  0  0  0  0  0  0  0  0  0  0  0  0  0  0  0  0
++         2  2  2  2  2  2  2  2  2  2  2  2  2  2  2  2  2
++         2  2  2  2  2  2  2  2  2  2  2  2  2  2  0  0  0
++         0  0  0  0  0  0  0  0  0  0  0  0  0  0  0  0  0
++         0  0  0  0  0  0  0  0  0  0  0  0  0  0  0  0  0
++         0  0  0  0  0  0  0  0  0  0  0  0  0  0  0  0  0
%c cc cc ccc ccc cccc cccc cccc cccc ccccc ccccc ccccc ccccc
%c cc cc ccc ccc cccc cccc cccc cccc ccccc ccccc ccccc ccccc
%f  0.0000000  0.000000000  0.00000000000  0.000000000000000
%f  0.0000000  0.000000000  0.00000000000  0.000000000000000
%i    0    0    0    0      0      0      0      0         0
%i    0    0    0    0      0      0      0      0         0
/*      NGA, ST. LOUIS,MO.                                  
/*   EPHEMERIS COMPUTED FROM  1 DAYS OF DATA                
/*   EPOCHA SMOOTHER                                       
/* CCCCCCCCCCCCCCCCCCCCCCCCCCCCCCCCCCCCCCCCCCCCCCCCCCCCCCCCC
*  2014  4  3 18 50  0.00000000
P  1 -22959.991495 -13363.056411   1855.405462      7.041448                    
V  1   -526.066401  -3564.852411 -31552.587106      0.016557                    
P  2   7964.208300  19349.269961  16918.483029    487.650650                    
V  2 -18718.825653  -9303.301421  19285.170085      0.021758                    
P  3  -5376.996133 -15509.960581 -21406.807145    347.081617                    
V  3  21468.608938 -14751.605773   5596.494644      0.049992                    
P  4  -7940.760381  13377.745961  21217.333725      6.415844                    
V  4 -23557.339992 -14681.441567    669.107446      0.001267                    
P  5   3432.667130  25486.231571  -6326.254306   -380.920296                    
V  5  -3566.954709   7886.953335  30180.477186      0.020798                    
P  7 -22070.733308  -2896.610541 -14665.380761    331.266699                    
V  7 -14496.030294 -11739.840375  23701.859585      0.042283                    
P  8 -15774.665167   4450.430254 -20890.101075     12.684962                    
V  8 -20286.115597 -17259.802154  10972.059196      0.000745                    
P  9 -13712.991189   8387.132715 -21709.507054    317.399203                    
V  9 -21809.178401 -14567.643554   8186.438185      0.029579                    
P 10  -9128.714157  22141.065790  10678.509506   -120.411155                    
V 10  -2468.735095 -14419.522974  27365.137469     -0.012731                    
P 11 -21564.558635 -13173.911630  -8997.878411   -477.622359                    
V 11  11581.232025  -1356.372079 -27029.169463     -0.031640                    
P 12  11457.260318  14414.576965  19167.958261    196.300877                    
V 12  -2968.232626  24155.289854 -16121.911039      0.024201                    
P 13 -25034.482025   3853.004769   8114.209764     13.485449                    
V 13   8991.252084  -5660.990781  29772.410264     -0.038944                    
P 14  20661.359505 -14668.810594   7918.525537    184.829226                    
V 14   9960.429614  -1601.443925 -29903.606415     -0.033318                    
P 15  13566.312400   9835.522867 -20715.573429   -171.866885                    
V 15 -22465.228383  13526.600813  -8022.406342     -0.021252                    
P 16  -1704.938087 -25480.653785  -6601.984869   -224.874151                    
V 16   3014.892371  -8119.878341  31105.380819      0.017294                    
P 17 -19351.388602  15773.812920   8973.236788    -81.970045                    
V 17 -11117.388520   2400.143206 -29247.815881     -0.031830                    
P 18  15390.481846  -6561.117948 -20123.289372    311.058261                    
V 18    246.916733  26783.725651  -8696.292387      0.022079                    
P 19 -11287.479948 -11408.264539 -21362.904130   -448.812542                    
V 19  24650.265262 -10350.762830  -7104.133139     -0.023447                    
P 20 -14087.075851 -12503.798265  18561.987929    176.176462                    
V 20   1538.615197 -24081.114001 -14831.471857      0.036197                    
P 21  21450.924754    134.098966 -15324.761988   -353.208501                    
V 21  15996.186472  13041.234931  21160.315432     -0.022157                    
P 22  11275.409353 -19420.592073 -13855.263820    224.196106                    
V 22   2406.468109  18214.330310 -23390.953029      0.027474                    
P 23 -19641.095350  -4204.861929  17677.424993     -9.358215                    
V 23  19072.568930 -11316.164389  18196.051616     -0.031734                    
P 24  21064.116443  15940.506175  -3245.589153    -26.068891                    
V 24  -4965.144606    216.556484 -31255.747806     -0.006566                    
P 25  14844.753710    418.949120  21954.422282     20.716266                    
V 25  -1153.106760  27963.593608    375.231830      0.011650                    
P 26    595.131711  15786.024749 -21970.590841    119.505862                    
V 26 -24675.925096   9255.069188   6466.052854     -0.112569                    
P 27   1733.450863 -16906.250347 -20400.239579    -20.272269                    
V 27  23450.861350 -11057.228109  11206.049976      0.003914                    
P 28 -12536.039217  16302.050730 -16128.193032    344.549433                    
V 28    773.538883 -21670.467953 -21833.408638      0.029075                    
P 29  24282.437904  -3257.778895  10241.394345    522.895674                    
V 29 -10845.616695   7432.685717  28244.404536      0.027873                    
P 30 -16606.384609   5084.585191 -20108.071768      1.855107                    
V 30 -19655.674124 -16307.503563  12092.864401     -0.021400                    
P 31   3409.118088 -15258.462584  21577.275003    334.096936                    
V 31  22651.535619  14774.146949   7223.110725      0.001517                    
P 32  -5607.335316 -23322.061373  12040.309973   -456.582162                    
V 32   4222.915964 -14584.885790 -25889.467783      0.074839                    
EOF
